{
  "type": "FeatureCollection",
  "features": [{
    "type": "Feature",
    "id": "node/3401391999",
    "properties": {
      "scientist": ["Kusala Rajendran"],
      "institute": "Indian Institute of Science, Bangalore",
      "author": "Nandita Jayaraj",
      "science": "Geophysics",
      "@id": "node/3401391999",
      "alt_name": "Bangalore",
      "capital": "4",
      "ele": "920",
      "is_capital": "state",
      "is_in:iso_3166_2": "IN-KA",
      "name": "Bengaluru",
      "name:be": "বেঙ্গালূরু",
      "name:de": "Bangalore",
      "name:en": "Bengaluru",
      "name:hi": "बेंगालुरू",
      "name:ja": "バンガロール",
      "name:kn": "ಬೆಂಗಳೂರು",
      "name:ml": "ബെംഗളൂരു",
      "name:ru": "Бангалор",
      "name:ta": "பெங்களூர்",
      "name:te": "బెంగళూరు",
      "old_name": "Bangalore",
      "place": "city",
      "population": "10839725",
      "postal_code": "560001",
      "wikidata": "Q1355",
      "wikipedia": "en:Bangalore"
    },
    "geometry": {
      "type": "Point",
      "coordinates": [
        77.5912997,
        12.9791198
      ]
    }
  }, {
    "type": "Feature",
    "id": "node/3233393892",
    "properties": {
      "scientist": ["Aruna Dhathathreyan"],
      "institute": "Central Leather Research Institute",
      "author": "Nandita Jayaraj",
      "science": "Biophysics",
      "@id": "node/3233393892",
      "capital": "4",
      "gns:dsg": "ADM2",
      "gns:uni": "-2919695",
      "is_capital": "state",
      "is_in:continent": "Asia",
      "is_in:country": "India",
      "is_in:country_code": "IN",
      "is_in:district": "Chennai",
      "is_in:state": "State of Tamil Nadu",
      "name": "Chennai",
      "name:de": "Chennai",
      "name:en": "Chennai",
      "name:fr": "Chennai",
      "name:hi": "चेन्नई",
      "name:ja": "チェンナイ",
      "name:kn": "ಚೆನ್ನೈ",
      "name:lt": "Čenajus",
      "name:ml": "ചെന്നൈ",
      "name:pl": "Ćennaj",
      "name:ru": "Ченнаи",
      "name:ta": "சென்னை",
      "name:te": "చెన్నై",
      "name:uk": "Ченнаї",
      "old_name": "Madras",
      "place": "city",
      "place:cca": "a1",
      "population": "4681087",
      "postal_code": "600001",
      "source": "GNS;http://en.wikipedia.org/wiki/Chennai",
      "wikipedia": "en:Chennai"
    },
    "geometry": {
      "type": "Point",
      "coordinates": [
        80.2829535,
        13.0796916
      ]
    }
  }, {
    "type": "Feature",
    "id": "node/287687798",
    "properties": {
      "scientist": ["Nidhi Singh"],
      "institute": "Institute of Environment and Sustainable Development, Varanasi",
      "author": "Aashima Dogra",
      "science": "Climate Change And Disease Research Scholar",
      "@id": "node/287687798",
      "is_in": "India",
      "is_in:continent": "Asia",
      "is_in:country": "India",
      "is_in:country_code": "IN",
      "is_in:state": "Uttar Pradesh",
      "name": "Varanasi",
      "name:en": "Varanasi",
      "name:hi": "वाराणसी",
      "name:ja": "ワーラーナシー",
      "name:kn": "ವಾರಾಣಸಿ",
      "name:ru": "Варанаси",
      "place": "city",
      "place:cca": "b1",
      "population": "3100000"
    },
    "geometry": {
      "type": "Point",
      "coordinates": [
        83.0076292,
        25.3356491
      ]
    }
  }, {
    "type": "Feature",
    "id": "node/342097733",
    "properties": {
      "scientist": ["Natasha Gurung", "Husnara Sharma"],
      "institute": "Indian Agricultural Research Institute, Kalimpong, West Bengal",
      "author": "Aashima Dogra",
      "science": "Horticulturist",
      "@id": "node/342097733",
      "AND_a_nosr_p": "10011134",
      "name": "Kalimpong",
      "place": "town",
      "population": "10000",
      "postal_code": "734301",
      "source": "AND"
    },
    "geometry": {
      "type": "Point",
      "coordinates": [
        88.4729,
        27.07169
      ]
    }
  }, {
    "type": "Feature",
    "id": "node/1880437827",
    "properties": {
      "scientist": ["Elizabeth V. Mathew"],
      "institute": "Union Christian College, Aluva",
      "author": "Nandita Jayaraj",
      "science": "Arachnologist",
      "@id": "node/1880437827",
      "is_in": "Ernakulam;Kerala;KL;India;IN",
      "is_in:country": "india",
      "is_in:district": "Ernakulam",
      "is_in:state": "kerala",
      "name": "Aluva",
      "place": "town"
    },
    "geometry": {
      "type": "Point",
      "coordinates": [
        76.3525732,
        10.1078869
      ]
    }
  }, {
    "type": "Feature",
    "id": "node/287687798",
    "properties": {
      "scientist": ["Kavita Shah"],
      "institute": "Institute of Environment and Sustainable Development, Varanasi",
      "author": "Aashima Dogra",
      "science": "Environmental Biotechnologist",
      "@id": "node/287687798",
      "is_in": "India",
      "is_in:continent": "Asia",
      "is_in:country": "India",
      "is_in:country_code": "IN",
      "is_in:state": "Uttar Pradesh",
      "name": "Varanasi",
      "name:en": "Varanasi",
      "name:hi": "वाराणसी",
      "name:ja": "ワーラーナシー",
      "name:kn": "ವಾರಾಣಸಿ",
      "name:ru": "Варанаси",
      "place": "city",
      "place:cca": "b1",
      "population": "3100000"
    },
    "geometry": {
      "type": "Point",
      "coordinates": [
        83.0076294,
        25.3356493
      ]
    }
  }, {
    "type": "Feature",
    "id": "node/245748597",
    "properties": {
      "scientist": ["Monica Bhatnagar"],
      "institute": "MDS University, Ajmer, Rajasthan",
      "author": "Aashima Dogra",
      "science": "Microbiologist",
      "@id": "node/245748597",
      "is_in:continent": "Asia",
      "is_in:country": "India",
      "is_in:country_code": "IN",
      "is_in:state": "Rajasthan",
      "name": "Ajmer",
      "name:en": "Ajmer",
      "name:gu": "અજમેર",
      "name:hi": "अजमेर",
      "name:ja": "アジュメール",
      "name:kn": "ಅಜ್ಮೇರ್",
      "name:ta": "அஜ்மீர்",
      "name:te": "అజ్మీర్",
      "place": "city",
      "population": "542600",
      "postal_code": "305001"
    },
    "geometry": {
      "type": "Point",
      "coordinates": [
        74.639,
        26.4691
      ]
    }
  }, {
    "type": "Feature",
    "id": "node/340748436",
    "properties": {
      "scientist": ["Kriti Faujdar"],
      "institute": "ISRO, Hassan",
      "author": "Nandita Jayaraj",
      "science": "Computer Scientist",
      "@id": "node/340748436",
      "name": "Hassan",
      "name:ja": "ハーサン",
      "name:kn": "ಹಾಸನ",
      "name:kn:iso15919": "Hāsana",
      "place": "town",
      "postal_code": "573201",
      "wikipedia": "en:Hassan,_Karnataka"
    },
    "geometry": {
      "type": "Point",
      "coordinates": [
        76.0992703,
        13.0070817
      ]
    }
  }, {
    "type": "Feature",
    "id": "node/287687798",
    "properties": {
      "scientist": ["Ramadevi Nimmanapalli"],
      "institute": "Banaras Hindu University",
      "author": "Aashima Dogra",
      "science": "Veterinarian and Biochemist",
      "@id": "node/287687798",
      "is_in": "India",
      "is_in:continent": "Asia",
      "is_in:country": "India",
      "is_in:country_code": "IN",
      "is_in:state": "Uttar Pradesh",
      "name": "Varanasi",
      "name:en": "Varanasi",
      "name:hi": "वाराणसी",
      "name:ja": "ワーラーナシー",
      "name:kn": "ವಾರಾಣಸಿ",
      "name:ru": "Варанаси",
      "place": "city",
      "place:cca": "b1",
      "population": "3100000"
    },
    "geometry": {
      "type": "Point",
      "coordinates": [
        83.0076296,
        25.3356495
      ]
    }
  }, {
    "type": "Feature",
    "id": "node/245581432",
    "properties": {
      "scientist": ["Aardra Chandra Mouli", "Gayathri Thankachi"],
      "institute": "Aeka Biochemicals",
      "author": "Nandita Jayaraj",
      "science": "Biotechnology entrepreneurs",
      "@id": "node/245581432",
      "alt_name": "Trivandrum",
      "capital": "4",
      "is_capital": "state",
      "is_in:continent": "Asia",
      "is_in:country": "India",
      "is_in:country_code": "IN",
      "name": "Thiruvananthapuram",
      "name:en": "Thiruvananthapuram",
      "name:hi": "तिरुवनन्तपुरम",
      "name:ja": "ティルヴァナンタプラム",
      "name:kn": "ತಿರುವನಂತಪುರಂ",
      "name:lt": "Thiruvananthapuramas",
      "name:ml": "തിരുവനന്തപുരം",
      "name:ru": "Тируванантапурам",
      "name:ta": "திருவனந்தபுரம",
      "name:uk": "Тируванантапурам",
      "name:zh": "特里凡得琅",
      "place": "city",
      "place:cca": "b2",
      "population": "744983",
      "postal_code": "695001",
      "wikipedia": "en:Thiruvananthapuram"
    },
    "geometry": {
      "type": "Point",
      "coordinates": [
        76.9570481,
        8.5058909
      ]
    }
  }, {
    "type": "Feature",
    "id": "node/245581432",
    "properties": {
      "scientist": ["Radhika Nair"],
      "institute": "Rajiv Gandhi Center for Biotechnology",
      "author": "Nandita Jayaraj",
      "science": "Cancer Biologist",
      "@id": "node/245581432",
      "alt_name": "Trivandrum",
      "capital": "4",
      "is_capital": "state",
      "is_in:continent": "Asia",
      "is_in:country": "India",
      "is_in:country_code": "IN",
      "name": "Thiruvananthapuram",
      "name:en": "Thiruvananthapuram",
      "name:hi": "तिरुवनन्तपुरम",
      "name:ja": "ティルヴァナンタプラム",
      "name:kn": "ತಿರುವನಂತಪುರಂ",
      "name:lt": "Thiruvananthapuramas",
      "name:ml": "തിരുവനന്തപുരം",
      "name:ru": "Тируванантапурам",
      "name:ta": "திருவனந்தபுரம",
      "name:uk": "Тируванантапурам",
      "name:zh": "特里凡得琅",
      "place": "city",
      "place:cca": "b2",
      "population": "744983",
      "postal_code": "695001",
      "wikipedia": "en:Thiruvananthapuram"
    },
    "geometry": {
      "type": "Point",
      "coordinates": [
        76.9570483,
        8.5058911
      ]
    }
  }, {
    "type": "Feature",
    "id": "node/1068792671",
    "properties": {
      "scientist": ["Hemlata Manglani"],
      "institute": "Central University of Rajasthan",
      "author": "Aashima Dogra",
      "science": "Economist",
      "@id": "node/1068792671",
      "capital": "5",
      "is_in:continent": "Asia",
      "is_in:country": "India",
      "is_in:country_code": "IN",
      "is_in:state": "Rajasthan",
      "name": "Bandhar Sindhri (Near Kishangarh)",
      "name:en": "Bandhar Sindhri (Near Kishangarh)",
      "name:hi": "किशानगढ",
      "place": "town",
      "population": "155000",
      "postal_code": "305802",
      "source": "AND"
    },
    "geometry": {
      "type": "Point",
      "coordinates": [
        74.8603448,
        26.5891537
      ]
    }
  }, {
    "type": "Feature",
    "id": "node/16173235",
    "properties": {
      "scientist": ["Vidita Vaidya"],
      "institute": "Tata Institute of Fundamental Research",
      "author": "Nandita Jayaraj",
      "science": "Neurobiologist",
      "@id": "node/16173235",
      "capital": "4",
      "ele": "8",
      "is_capital": "state",
      "is_in:continent": "Asia",
      "is_in:country": "India",
      "is_in:country_code": "IN",
      "is_in:iso_3166_2": "IN-MH",
      "is_in:state": "Maharashtra",
      "name": "Mumbai",
      "name:bn": "মুম্বই",
      "name:cs": "Bombaj",
      "name:de": "Mumbai",
      "name:en": "Mumbai",
      "name:eo": "Mumbajo",
      "name:es": "Bombay",
      "name:fr": "Bombay",
      "name:gu": "મુંબઈ",
      "name:hi": "मुंबई",
      "name:ia": "Mumbai",
      "name:io": "Mumbai",
      "name:ja": "ムンバイ",
      "name:jbo": ".mumbais.",
      "name:kn": "ಮುಂಬೈ",
      "name:lt": "Mumbajus",
      "name:ml": "മുംബൈ",
      "name:mr": "मुंबई",
      "name:pl": "Mumbaj",
      "name:ru": "Мумбаи",
      "name:sk": "Bombaj",
      "name:sr": "Мумбај",
      "name:ta": "மும்பை",
      "name:te": "ముంబై",
      "name:uk": "Мумбаї",
      "name:zh": "孟买",
      "old_name": "Bombay",
      "old_name:eo": "Bombajo",
      "old_name:pl": "Bombaj",
      "place": "city",
      "place:cca": "a1",
      "population": "13662885",
      "rank": "0",
      "source": "http://en.wikipedia.org/wiki/Mumbai",
      "wikipedia": "en:Mumbai"
    },
    "geometry": {
      "type": "Point",
      "coordinates": [
        72.8308337,
        18.9321862
      ]
    }
  }, {
    "type": "Feature",
    "id": "node/125904109",
    "properties": {
      "scientist": ["Anu Sabhlok"],
      "institute": "IISER - Mohali",
      "author": "Aashima Dogra",
      "science": "Social Scientist",
      "@id": "node/125904109",
      "alt_name": "Ajitgarh",
      "name": "Mohali",
      "name:ja": "モーハーリー",
      "name:pa": "ਮੋਹਾਲੀ",
      "place": "town",
      "wikidata": "Q1949069",
      "wikipedia": "en:Mohali"
    },
    "geometry": {
      "type": "Point",
      "coordinates": [
        76.7138075,
        30.7287676
      ]
    }
  }, {
    "type": "Feature",
    "id": "node/16173235",
    "properties": {
      "scientist": ["Maryam Shojaei"],
      "institute": "IIT - Bombay",
      "author": "Nandita Jayaraj",
      "science": "Electrical Engineer",
      "@id": "node/16173235",
      "capital": "4",
      "ele": "8",
      "is_capital": "state",
      "is_in:continent": "Asia",
      "is_in:country": "India",
      "is_in:country_code": "IN",
      "is_in:iso_3166_2": "IN-MH",
      "is_in:state": "Maharashtra",
      "name": "Mumbai",
      "name:bn": "মুম্বই",
      "name:cs": "Bombaj",
      "name:de": "Mumbai",
      "name:en": "Mumbai",
      "name:eo": "Mumbajo",
      "name:es": "Bombay",
      "name:fr": "Bombay",
      "name:gu": "મુંબઈ",
      "name:hi": "मुंबई",
      "name:ia": "Mumbai",
      "name:io": "Mumbai",
      "name:ja": "ムンバイ",
      "name:jbo": ".mumbais.",
      "name:kn": "ಮುಂಬೈ",
      "name:lt": "Mumbajus",
      "name:ml": "മുംബൈ",
      "name:mr": "मुंबई",
      "name:pl": "Mumbaj",
      "name:ru": "Мумбаи",
      "name:sk": "Bombaj",
      "name:sr": "Мумбај",
      "name:ta": "மும்பை",
      "name:te": "ముంబై",
      "name:uk": "Мумбаї",
      "name:zh": "孟买",
      "old_name": "Bombay",
      "old_name:eo": "Bombajo",
      "old_name:pl": "Bombaj",
      "place": "city",
      "place:cca": "a1",
      "population": "13662885",
      "rank": "0",
      "source": "http://en.wikipedia.org/wiki/Mumbai",
      "wikipedia": "en:Mumbai"
    },
    "geometry": {
      "type": "Point",
      "coordinates": [
        72.8308339,
        18.9321864
      ]
    }
  }, {
    "type": "Feature",
    "id": "node/1068792671",
    "properties": {
      "scientist": ["Mamta Rani"],
      "institute": "Central University of Rajasthan",
      "author": "Aashima Dogra",
      "science": "Computer Scientist",
      "@id": "node/1068792671",
      "capital": "5",
      "is_in:continent": "Asia",
      "is_in:country": "India",
      "is_in:country_code": "IN",
      "is_in:state": "Rajasthan",
      "name": "Bandhar Sindhri (Near Kishangarh)",
      "name:en": "Bandhar Sindhri (Near Kishangarh)",
      "name:hi": "किशानगढ",
      "place": "town",
      "population": "155000",
      "postal_code": "305802",
      "source": "AND"
    },
    "geometry": {
      "type": "Point",
      "coordinates": [
        74.8603450,
        26.5891539
      ]
    }
  }, {
    "type": "Feature",
    "id": "node/16173235",
    "properties": {
      "scientist": ["Annamma Anil"],
      "institute": "Institute of Chemical Technology",
      "author": "Nandita Jayaraj",
      "science": "Industrial Microbiologist",
      "@id": "node/16173235",
      "capital": "4",
      "ele": "8",
      "is_capital": "state",
      "is_in:continent": "Asia",
      "is_in:country": "India",
      "is_in:country_code": "IN",
      "is_in:iso_3166_2": "IN-MH",
      "is_in:state": "Maharashtra",
      "name": "Mumbai",
      "name:bn": "মুম্বই",
      "name:cs": "Bombaj",
      "name:de": "Mumbai",
      "name:en": "Mumbai",
      "name:eo": "Mumbajo",
      "name:es": "Bombay",
      "name:fr": "Bombay",
      "name:gu": "મુંબઈ",
      "name:hi": "मुंबई",
      "name:ia": "Mumbai",
      "name:io": "Mumbai",
      "name:ja": "ムンバイ",
      "name:jbo": ".mumbais.",
      "name:kn": "ಮುಂಬೈ",
      "name:lt": "Mumbajus",
      "name:ml": "മുംബൈ",
      "name:mr": "मुंबई",
      "name:pl": "Mumbaj",
      "name:ru": "Мумбаи",
      "name:sk": "Bombaj",
      "name:sr": "Мумбај",
      "name:ta": "மும்பை",
      "name:te": "ముంబై",
      "name:uk": "Мумбаї",
      "name:zh": "孟买",
      "old_name": "Bombay",
      "old_name:eo": "Bombajo",
      "old_name:pl": "Bombaj",
      "place": "city",
      "place:cca": "a1",
      "population": "13662885",
      "rank": "0",
      "source": "http://en.wikipedia.org/wiki/Mumbai",
      "wikipedia": "en:Mumbai"
    },
    "geometry": {
      "type": "Point",
      "coordinates": [
        72.8308341,
        18.9321866
      ]
    }
  }, {
    "type": "Feature",
    "id": "node/245612641",
    "properties": {
      "scientist": ["Smitha Hegde"],
      "institute": "St. Aloysius College",
      "author": "Nandita Jayaraj",
      "science": "Pteridologist",
      "@id": "node/245612641",
      "alt_name": "Kudla",
      "capital": "5",
      "is_in:continent": "Asia",
      "is_in:country": "India",
      "is_in:country_code": "IN",
      "name": "Mangaluru",
      "name:en": "Mangaluru",
      "name:hi": "मैंगलूर",
      "name:ja": "マンガロール",
      "name:kn": "ಮಂಗಳೂರು",
      "name:kn:iso15919": "Maṅgaḷūru",
      "name:lt": "Mangaloras",
      "name:ml": "മംഗളൂരു",
      "name:ru": "Мангалор",
      "name:ta": "மங்களூர்",
      "old_name": "Mangalore",
      "place": "city",
      "place:cca": "b2",
      "population": "500000",
      "postal_code": "575001"
    },
    "geometry": {
      "type": "Point",
      "coordinates": [
        74.8430082,
        12.8698101
      ]
    }
  }, {
    "type": "Feature",
    "id": "node/16173236",
    "properties": {
      "scientist": ["Soumya Prasad"],
      "institute": "Jawaharlal Nehru University",
      "author": "Aashima Dogra",
      "science": "Forest Ecologist",
      "@id": "node/16173236",
      "capital": "2",
      "capital_ISO3166-1": "yes",
      "is_capital": "country",
      "is_in": "National Capital Region, NCR, India",
      "is_in:continent": "Asia",
      "is_in:country": "India",
      "is_in:country_code": "IN",
      "is_in:iso_3166_2": "IN-DL",
      "name": "New Delhi",
      "name:ace": "New delhi",
      "name:af": "Nieu-Delhi",
      "name:am": "ኒው ዴሊ",
      "name:an": "Nueva Delhi",
      "name:ang": "Nīƿe Delhi",
      "name:ar": "نيودلهي",
      "name:bat-smg": "Naujasės Delės",
      "name:be": "Нью-Дэлі",
      "name:be-tarask": "Нью-Дэлі",
      "name:bg": "Ню Делхи",
      "name:bn": "নতুন দিল্লি",
      "name:bo": "ནེའུ་དིལ་ལི།",
      "name:bpy": "নুৱা দিল্লী",
      "name:br": "New Delhi",
      "name:bs": "New Delhi",
      "name:ca": "Nova Delhi",
      "name:cbk-zam": "Nueva Delhi",
      "name:ckb": "نیودلھی",
      "name:co": "New Delhi",
      "name:crh": "Nyu Deli",
      "name:cs": "Nové Dillí",
      "name:cy": "Delhi Newydd",
      "name:da": "New Delhi",
      "name:de": "Neu-Delhi",
      "name:diq": "Delhiyo Newe",
      "name:dv": "ނިއުދިއްލީ",
      "name:el": "Νέο Δελχί",
      "name:en": "New Delhi",
      "name:eo": "Nov-Delhio",
      "name:es": "Nueva Delhi",
      "name:et": "New Delhi",
      "name:eu": "New Delhi",
      "name:ext": "Nueva Delhi",
      "name:fa": "دهلی نو",
      "name:fi": "New Delhi",
      "name:fiu-vro": "New Delhi",
      "name:fr": "New Delhi",
      "name:fy": "Nij Delly",
      "name:ga": "Nua-Deilí",
      "name:gd": "New Delhi",
      "name:gl": "Nova Deli - नई दिल्ली",
      "name:gv": "Delhi Noa",
      "name:he": "ניו דלהי",
      "name:hi": "नई दिल्ली",
      "name:hif": "New Delhi",
      "name:hr": "New Delhi",
      "name:ht": "Niou Deli",
      "name:hu": "Újdelhi",
      "name:hy": "Նյու Դելի",
      "name:ia": "Nove Delhi",
      "name:id": "New Delhi",
      "name:io": "Nova-Delhi",
      "name:is": "Nýja Delí",
      "name:it": "Nuova Delhi",
      "name:ja": "ニューデリー",
      "name:jv": "New Delhi",
      "name:ka": "ნიუ-დელი",
      "name:kk": "Нью-Дели",
      "name:kl": "New Delhi",
      "name:kn": "ಹೊಸ ದೆಹಲಿ",
      "name:ko": "뉴델리",
      "name:ks": "نٔو دلھی",
      "name:ku": "Delhiya Nû",
      "name:la": "Dellium Novum",
      "name:lb": "Nei-Delhi",
      "name:lij": "Neuva Delhi",
      "name:lmo": "New Delhi",
      "name:lt": "Naujasis Delis",
      "name:lv": "Ņūdeli",
      "name:mg": "New Delhi",
      "name:mi": "New Delhi",
      "name:mk": "Њу Делхи",
      "name:ml": "ന്യൂ ഡെൽഹി",
      "name:mn": "Шинэ Дели",
      "name:mr": "नवी दिल्ली",
      "name:ms": "New Delhi",
      "name:my": "နယူးဒေလီမြို့",
      "name:mzn": "نو دهلی",
      "name:nah": "Yancuīc Deli",
      "name:ne": "नयाँ दिल्ली",
      "name:nl": "New Delhi",
      "name:nn": "New Delhi",
      "name:no": "New Delhi",
      "name:nov": "Novi Deli",
      "name:oc": "Nòva Delhi",
      "name:os": "Нью-Дели",
      "name:pa": "ਨਵੀਂ ਦਿੱਲੀ",
      "name:pam": "New Delhi",
      "name:pl": "Nowe Delhi",
      "name:pms": "New Delhi",
      "name:pnb": "نئی دلی",
      "name:pt": "Nova Deli",
      "name:qu": "Musuq Dilhi",
      "name:ro": "New Delhi",
      "name:ru": "Нью-Дели",
      "name:sa": "नवदेहली",
      "name:sah": "Саҥа Дели",
      "name:scn": "Nova Delhi",
      "name:sco": "New Delhi",
      "name:si": "නව දිල්ලිය",
      "name:simple": "New Delhi",
      "name:sk": "Naí Dillí",
      "name:sl": "New Delhi",
      "name:so": "New Delhi",
      "name:sq": "New Delhi",
      "name:sr": "Њу Делхи",
      "name:sv": "New Delhi",
      "name:sw": "New Delhi",
      "name:ta": "புது தில்லி",
      "name:te": "క్రొత్త ఢిల్లీ",
      "name:tg": "Ню-Дели",
      "name:th": "นิวเดลี",
      "name:tl": "Bagong Delhi",
      "name:tr": "Yeni Delhi",
      "name:ug": "Yéngi Déhli",
      "name:uk": "Нью-Делі",
      "name:ur": "نئی دہلی",
      "name:vi": "Tân Delhi",
      "name:war": "New Delhi",
      "name:yi": "ניי דעלי",
      "name:yo": "New Delhi",
      "name:zh": "新德里",
      "name:zh-min-nan": "Sin Delhi",
      "name:zh-yue": "新德里",
      "place": "city",
      "population": "249998",
      "population:date": "2011",
      "wikipedia": "en:New Delhi"
    },
    "geometry": {
      "type": "Point",
      "coordinates": [
        77.2159562,
        28.6138967
      ]
    }
  }, {
    "type": "Feature",
    "id": "node/16173235",
    "properties": {
      "scientist": ["Prajakta Dandekar"],
      "institute": "Institute of Chemical Technology",
      "author": "Nandita Jayaraj",
      "science": "Pharmaceutical Biotechnologist",
      "@id": "node/16173235",
      "capital": "4",
      "ele": "8",
      "is_capital": "state",
      "is_in:continent": "Asia",
      "is_in:country": "India",
      "is_in:country_code": "IN",
      "is_in:iso_3166_2": "IN-MH",
      "is_in:state": "Maharashtra",
      "name": "Mumbai",
      "name:bn": "মুম্বই",
      "name:cs": "Bombaj",
      "name:de": "Mumbai",
      "name:en": "Mumbai",
      "name:eo": "Mumbajo",
      "name:es": "Bombay",
      "name:fr": "Bombay",
      "name:gu": "મુંબઈ",
      "name:hi": "मुंबई",
      "name:ia": "Mumbai",
      "name:io": "Mumbai",
      "name:ja": "ムンバイ",
      "name:jbo": ".mumbais.",
      "name:kn": "ಮುಂಬೈ",
      "name:lt": "Mumbajus",
      "name:ml": "മുംബൈ",
      "name:mr": "मुंबई",
      "name:pl": "Mumbaj",
      "name:ru": "Мумбаи",
      "name:sk": "Bombaj",
      "name:sr": "Мумбај",
      "name:ta": "மும்பை",
      "name:te": "ముంబై",
      "name:uk": "Мумбаї",
      "name:zh": "孟买",
      "old_name": "Bombay",
      "old_name:eo": "Bombajo",
      "old_name:pl": "Bombaj",
      "place": "city",
      "place:cca": "a1",
      "population": "13662885",
      "rank": "0",
      "source": "http://en.wikipedia.org/wiki/Mumbai",
      "wikipedia": "en:Mumbai"
    },
    "geometry": {
      "type": "Point",
      "coordinates": [
        72.8308343,
        18.9321868
      ]
    }
  }, {
    "type": "Feature",
    "id": "node/16174445",
    "properties": {
      "scientist": ["Richa Rikhy"],
      "institute": "IISER - Pune",
      "author": "Aashima Dogra",
      "science": "Cell Biologist",
      "@id": "node/16174445",
      "capital": "5",
      "is_in": "India",
      "is_in:continent": "Asia",
      "is_in:country": "India",
      "is_in:country_code": "IN",
      "name": "Pune",
      "name:eo": "Puneo",
      "name:gu": "પુના",
      "name:hi": "पुणे",
      "name:ja": "プネー",
      "name:kn": "ಪುಣೆ",
      "name:lt": "Puna",
      "name:ml": "പൂണെ",
      "name:mr": "पुणे",
      "name:pl": "Pune",
      "name:ru": "Пуна",
      "name:ta": "புனே",
      "name:te": "పూణే",
      "old_name:en": "Poona",
      "place": "city",
      "place:cca": "a",
      "population": "3115431",
      "postal_code": "411 001",
      "source": "http://en.wikipedia.org/wiki/Pune"
    },
    "geometry": {
      "type": "Point",
      "coordinates": [
        73.8543187,
        18.5203064
      ]
    }
  }, {
    "type": "Feature",
    "id": "node/1998361311",
    "properties": {
      "scientist": ["Jis Sebastian"],
      "institute": "Madurai Kamaraj University",
      "author": "Nandita Jayaraj",
      "science": "Conservation Ecologist",
      "@id": "node/1998361311",
      "alt_name": "Cochin",
      "name": "Kochi",
      "name:en": "Kochi",
      "name:hi": "कोच्चि",
      "name:ja": "コーチ",
      "name:kn": "ಕೊಚ್ಚಿ",
      "name:ml": "കൊച്ചി",
      "name:ru": "Коччи",
      "name:ta": "கொச்சி",
      "name:uk": "Кочі",
      "name:zh": "科钦",
      "place": "city",
      "source": "Bing",
      "wikipedia": "en:Kochi"
    },
    "geometry": {
      "type": "Point",
      "coordinates": [
        76.2536614,
        9.9633864
      ]
    }
  }, {
    "type": "Feature",
    "id": "node/2360610107",
    "properties": {
      "scientist": ["Shiny Hangloo"],
      "institute": "Shoolini University",
      "author": "Aashima Dogra",
      "science": "Biotechnologist",
      "@id": "node/2360610107",
      "int_name": "Solan",
      "is_in": "Himachal Pradesh, India",
      "name": "Solan",
      "name:en": "Solan",
      "name:pa": "সোলান",
      "place": "town"
    },
    "geometry": {
      "type": "Point",
      "coordinates": [
        77.1023645,
        30.9077569
      ]
    }
  }, {
    "type": "Feature",
    "id": "node/872403894",
    "properties": {
      "scientist": ["Manasa KJ", "Kumudakshi", "Manasa B.", "Sabari M.", "Rashmi M."],
      "institute": "NIT-Surathkal",
      "author": "Nandita Jayaraj",
      "science": "Mathematician",
      "@id": "node/872403894",
      "name": "Suratkal",
      "name:kn": "ಸುರತ್ಕಲ್",
      "name:kn:iso15919": "Suratkal",
      "place": "town",
      "postal_code": "575014"
    },
    "geometry": {
      "type": "Point",
      "coordinates": [
        74.8046595,
        12.9830998
      ]
    }
  }, {
    "type": "Feature",
    "id": "node/1882920874",
    "properties": {
      "scientist": ["Monika Panchani"],
      "institute": "Government College - Bassa",
      "author": "Aashima Dogra",
      "science": "Ethnobiologist",
      "@id": "node/1882920874",
      "is_in:country": "India",
      "name": "Bassa (near Mandi)",
      "place": "town",
      "population": "100000",
      "wikipedia": "en:Mandi,_Himachal_Pradesh"
    },
    "geometry": {
      "type": "Point",
      "coordinates": [
        76.9293782,
        31.7084496
      ]
    }
  }, {
    "type": "Feature",
    "id": "node/245612641",
    "properties": {
      "scientist": ["Asha Abraham"],
      "institute": "St. Aloysius College",
      "author": "Nandita Jayaraj",
      "science": "Animal Biotechnologist",
      "@id": "node/245612641",
      "alt_name": "Kudla",
      "capital": "5",
      "is_in:continent": "Asia",
      "is_in:country": "India",
      "is_in:country_code": "IN",
      "name": "Mangaluru",
      "name:en": "Mangaluru",
      "name:hi": "मैंगलूर",
      "name:ja": "マンガロール",
      "name:kn": "ಮಂಗಳೂರು",
      "name:kn:iso15919": "Maṅgaḷūru",
      "name:lt": "Mangaloras",
      "name:ml": "മംഗളൂരു",
      "name:ru": "Мангалор",
      "name:ta": "மங்களூர்",
      "old_name": "Mangalore",
      "place": "city",
      "place:cca": "b2",
      "population": "500000",
      "postal_code": "575001"
    },
    "geometry": {
      "type": "Point",
      "coordinates": [
        74.8430084,
        12.8698103
      ]
    }
  }, {
    "type": "Feature",
    "id": "node/16174445",
    "properties": {
      "scientist": ["Mayurika Lahiri"],
      "institute": "IISER - Pune",
      "author": "Aashima Dogra",
      "science": "Cancer Biologist",
      "@id": "node/16174445",
      "capital": "5",
      "is_in": "India",
      "is_in:continent": "Asia",
      "is_in:country": "India",
      "is_in:country_code": "IN",
      "name": "Pune",
      "name:eo": "Puneo",
      "name:gu": "પુના",
      "name:hi": "पुणे",
      "name:ja": "プネー",
      "name:kn": "ಪುಣೆ",
      "name:lt": "Puna",
      "name:ml": "പൂണെ",
      "name:mr": "पुणे",
      "name:pl": "Pune",
      "name:ru": "Пуна",
      "name:ta": "புனே",
      "name:te": "పూణే",
      "old_name:en": "Poona",
      "place": "city",
      "place:cca": "a",
      "population": "3115431",
      "postal_code": "411 001",
      "source": "http://en.wikipedia.org/wiki/Pune"
    },
    "geometry": {
      "type": "Point",
      "coordinates": [
        73.8543185,
        18.5203062
      ]
    }
  }, {
    "type": "Feature",
    "id": "node/3233393892",
    "properties": {
      "name": "Chennai",
      "scientist": ["Indumathi D."],
      "institute": "Institute of Mathematical Sciences",
      "author": "Nandita Jayaraj",
      "science": "Particle Physicist",
      "@id": "node/3233393892",
      "capital": "4",
      "gns:dsg": "ADM2",
      "gns:uni": "-2919695",
      "is_capital": "state",
      "is_in:continent": "Asia",
      "is_in:country": "India",
      "is_in:country_code": "IN",
      "is_in:district": "Chennai",
      "is_in:state": "State of Tamil Nadu",
      "name:de": "Chennai",
      "name:en": "Chennai",
      "name:fr": "Chennai",
      "name:hi": "चेन्नई",
      "name:ja": "チェンナイ",
      "name:kn": "ಚೆನ್ನೈ",
      "name:lt": "Čenajus",
      "name:ml": "ചെന്നൈ",
      "name:pl": "Ćennaj",
      "name:ru": "Ченнаи",
      "name:ta": "சென்னை",
      "name:te": "చెన్నై",
      "name:uk": "Ченнаї",
      "old_name": "Madras",
      "place": "city",
      "place:cca": "a1",
      "population": "4681087",
      "postal_code": "600001",
      "source": "GNS;http://en.wikipedia.org/wiki/Chennai",
      "wikipedia": "en:Chennai"
    },
    "geometry": {
      "type": "Point",
      "coordinates": [
        80.2829533,
        13.0796914
      ]
    }
  },
  {
    "type": "Feature",
    "id": "node/16173235",
    "properties": {
      "scientist": ["Shilpa Ranade"],
      "institute": "Industrial Design Center",
      "author": "Aashima Dogra",
      "science": "Animator",
      "@id": "node/16173235",
      "capital": "4",
      "ele": "8",
      "is_capital": "state",
      "is_in:continent": "Asia",
      "is_in:country": "India",
      "is_in:country_code": "IN",
      "is_in:iso_3166_2": "IN-MH",
      "is_in:state": "Maharashtra",
      "name": "Mumbai",
      "name:bn": "মুম্বই",
      "name:cs": "Bombaj",
      "name:de": "Mumbai",
      "name:en": "Mumbai",
      "name:eo": "Mumbajo",
      "name:es": "Bombay",
      "name:fr": "Bombay",
      "name:gu": "મુંબઈ",
      "name:hi": "मुंबई",
      "name:ia": "Mumbai",
      "name:io": "Mumbai",
      "name:ja": "ムンバイ",
      "name:jbo": ".mumbais.",
      "name:kn": "ಮುಂಬೈ",
      "name:lt": "Mumbajus",
      "name:ml": "മുംബൈ",
      "name:mr": "मुंबई",
      "name:pl": "Mumbaj",
      "name:ru": "Мумбаи",
      "name:sk": "Bombaj",
      "name:sr": "Мумбај",
      "name:ta": "மும்பை",
      "name:te": "ముంబై",
      "name:uk": "Мумбаї",
      "name:zh": "孟买",
      "old_name": "Bombay",
      "old_name:eo": "Bombajo",
      "old_name:pl": "Bombaj",
      "place": "city",
      "place:cca": "a1",
      "population": "13662885",
      "rank": "0",
      "source": "http://en.wikipedia.org/wiki/Mumbai",
      "wikipedia": "en:Mumbai"
    },
    "geometry": {
      "type": "Point",
      "coordinates": [
        72.8308337,
        18.9321862
      ]
    }
  },
  {
    "type": "Feature",
    "id": "node/245581432",
    "properties": {
      "scientist": ["Ramadevi TS"],
      "institute": "Vikram Sarabhai Space Center",
      "author": "Nandita Jayaraj",
      "science": " Electronics engineer",
      "@id": "node/245581432",
      "alt_name": "Trivandrum",
      "capital": "4",
      "is_capital": "state",
      "is_in:continent": "Asia",
      "is_in:country": "India",
      "is_in:country_code": "IN",
      "name": "Thiruvananthapuram",
      "name:en": "Thiruvananthapuram",
      "name:hi": "तिरुवनन्तपुरम",
      "name:ja": "ティルヴァナンタプラム",
      "name:kn": "ತಿರುವನಂತಪುರಂ",
      "name:lt": "Thiruvananthapuramas",
      "name:ml": "തിരുവനന്തപുരം",
      "name:ru": "Тируванантапурам",
      "name:ta": "திருவனந்தபுரம",
      "name:uk": "Тируванантапурам",
      "name:zh": "特里凡得琅",
      "place": "city",
      "place:cca": "b2",
      "population": "744983",
      "postal_code": "695001",
      "wikipedia": "en:Thiruvananthapuram"
    },
    "geometry": {
      "type": "Point",
      "coordinates": [
        76.9570481,
        8.5058909
      ]
    }
  }]
}